[{"OBJECT_NAME":"HULIANWANG DIGUI-33","OBJECT_ID":"2025-121D","EPOCH":"2026-03-14T22:28:41.879712","MEAN_MOTION":13.24425995,"ECCENTRICITY":0.000201,"INCLINATION":86.4984,"RA_OF_ASC_NODE":45.3885,"ARG_OF_PERICENTER":73.0665,"MEAN_ANOMALY":287.0689,"EPHEMERIS_TYPE":0,"CLASSIFICATION_TYPE":"U","NORAD_CAT_ID":64286,"ELEMENT_SET_NO":999,"REV_AT_EPOCH":3768,"BSTAR":0.00012397293,"MEAN_MOTION_DOT":6.8e-7,"MEAN_MOTION_DDOT":0},{"OBJECT_NAME":"HULIANWANG DIGUI-34","OBJECT_ID":"2025-121E","EPOCH":"2026-03-14T22:17:54.257280","MEAN_MOTION":13.24424825,"ECCENTRICITY":0.00020972,"INCLINATION":86.4962,"RA_OF_ASC_NODE":45.3209,"ARG_OF_PERICENTER":67.5489,"MEAN_ANOMALY":292.5867,"EPHEMERIS_TYPE":0,"CLASSIFICATION_TYPE":"U","NORAD_CAT_ID":64287,"ELEMENT_SET_NO":999,"REV_AT_EPOCH":3768,"BSTAR":9.9638255e-5,"MEAN_MOTION_DOT":5.7e-7,"MEAN_MOTION_DDOT":0},{"OBJECT_NAME":"HULIANWANG DIGUI-35","OBJECT_ID":"2025-159A","EPOCH":"2026-03-14T21:29:41.034912","MEAN_MOTION":13.24417924,"ECCENTRICITY":0.00012384,"INCLINATION":86.4967,"RA_OF_ASC_NODE":314.3084,"ARG_OF_PERICENTER":82.7862,"MEAN_ANOMALY":277.3413,"EPHEMERIS_TYPE":0,"CLASSIFICATION_TYPE":"U","NORAD_CAT_ID":64956,"ELEMENT_SET_NO":999,"REV_AT_EPOCH":3064,"BSTAR":7.2236415e-5,"MEAN_MOTION_DOT":4.6e-7,"MEAN_MOTION_DDOT":0},{"OBJECT_NAME":"HULIANWANG DIGUI-36","OBJECT_ID":"2025-159B","EPOCH":"2026-03-14T23:07:17.355648","MEAN_MOTION":13.24420563,"ECCENTRICITY":0.00012963,"INCLINATION":86.4987,"RA_OF_ASC_NODE":314.325,"ARG_OF_PERICENTER":79.8408,"MEAN_ANOMALY":280.2872,"EPHEMERIS_TYPE":0,"CLASSIFICATION_TYPE":"U","NORAD_CAT_ID":64957,"ELEMENT_SET_NO":999,"REV_AT_EPOCH":3065,"BSTAR":4.4668323e-5,"MEAN_MOTION_DOT":3.4e-7,"MEAN_MOTION_DDOT":0},{"OBJECT_NAME":"HULIANWANG DIGUI-37","OBJECT_ID":"2025-159C","EPOCH":"2026-03-14T22:56:25.949760","MEAN_MOTION":13.24420155,"ECCENTRICITY":0.00013282,"INCLINATION":86.4928,"RA_OF_ASC_NODE":314.1841,"ARG_OF_PERICENTER":75.5943,"MEAN_ANOMALY":284.5338,"EPHEMERIS_TYPE":0,"CLASSIFICATION_TYPE":"U","NORAD_CAT_ID":64958,"ELEMENT_SET_NO":999,"REV_AT_EPOCH":3065,"BSTAR":4.4809699e-5,"MEAN_MOTION_DOT":3.4e-7,"MEAN_MOTION_DDOT":0},{"OBJECT_NAME":"HULIANWANG DIGUI-38","OBJECT_ID":"2025-159D","EPOCH":"2026-03-14T22:45:34.844544","MEAN_MOTION":13.2442033,"ECCENTRICITY":0.00013476,"INCLINATION":86.4987,"RA_OF_ASC_NODE":314.3179,"ARG_OF_PERICENTER":78.0105,"MEAN_ANOMALY":282.118,"EPHEMERIS_TYPE":0,"CLASSIFICATION_TYPE":"U","NORAD_CAT_ID":64959,"ELEMENT_SET_NO":999,"REV_AT_EPOCH":3065,"BSTAR":4.4554123e-5,"MEAN_MOTION_DOT":3.4e-7,"MEAN_MOTION_DDOT":0},{"OBJECT_NAME":"HULIANWANG DIGUI-39","OBJECT_ID":"2025-159E","EPOCH":"2026-03-14T22:34:40.916640","MEAN_MOTION":13.24420524,"ECCENTRICITY":0.00013701,"INCLINATION":86.4963,"RA_OF_ASC_NODE":314.2579,"ARG_OF_PERICENTER":79.1467,"MEAN_ANOMALY":280.9821,"EPHEMERIS_TYPE":0,"CLASSIFICATION_TYPE":"U","NORAD_CAT_ID":64960,"ELEMENT_SET_NO":999,"REV_AT_EPOCH":3065,"BSTAR":8.0680291e-5,"MEAN_MOTION_DOT":4.9e-7,"MEAN_MOTION_DDOT":0},{"OBJECT_NAME":"HULIANWANG DIGUI-40","OBJECT_ID":"2025-162A","EPOCH":"2026-03-14T21:23:28.432320","MEAN_MOTION":13.29333129,"ECCENTRICITY":0.0001041,"INCLINATION":49.9984,"RA_OF_ASC_NODE":244.1689,"ARG_OF_PERICENTER":109.4475,"MEAN_ANOMALY":250.6509,"EPHEMERIS_TYPE":0,"CLASSIFICATION_TYPE":"U","NORAD_CAT_ID":65043,"ELEMENT_SET_NO":999,"REV_AT_EPOCH":3080,"BSTAR":9.8197302e-5,"MEAN_MOTION_DOT":-7.8e-7,"MEAN_MOTION_DDOT":0},{"OBJECT_NAME":"HULIANWANG DIGUI-41","OBJECT_ID":"2025-162B","EPOCH":"2026-03-14T21:11:26.580192","MEAN_MOTION":13.29333542,"ECCENTRICITY":0.0001083,"INCLINATION":49.9993,"RA_OF_ASC_NODE":244.1435,"ARG_OF_PERICENTER":108.3035,"MEAN_ANOMALY":251.7955,"EPHEMERIS_TYPE":0,"CLASSIFICATION_TYPE":"U","NORAD_CAT_ID":65044,"ELEMENT_SET_NO":999,"REV_AT_EPOCH":3081,"BSTAR":0.00010071387,"MEAN_MOTION_DOT":-7.7e-7,"MEAN_MOTION_DDOT":0},{"OBJECT_NAME":"HULIANWANG DIGUI-42","OBJECT_ID":"2025-162C","EPOCH":"2026-03-14T20:59:22.666560","MEAN_MOTION":13.2933293,"ECCENTRICITY":0.00010209,"INCLINATION":49.9958,"RA_OF_ASC_NODE":244.0357,"ARG_OF_PERICENTER":110.1716,"MEAN_ANOMALY":249.9266,"EPHEMERIS_TYPE":0,"CLASSIFICATION_TYPE":"U","NORAD_CAT_ID":65045,"ELEMENT_SET_NO":999,"REV_AT_EPOCH":3081,"BSTAR":0.0001058213,"MEAN_MOTION_DOT":-7.5e-7,"MEAN_MOTION_DDOT":0},{"OBJECT_NAME":"HULIANWANG DIGUI-43","OBJECT_ID":"2025-162D","EPOCH":"2026-03-14T20:47:18.553344","MEAN_MOTION":13.29333938,"ECCENTRICITY":0.00010135,"INCLINATION":49.9975,"RA_OF_ASC_NODE":244.0252,"ARG_OF_PERICENTER":109.0559,"MEAN_ANOMALY":251.0423,"EPHEMERIS_TYPE":0,"CLASSIFICATION_TYPE":"U","NORAD_CAT_ID":65046,"ELEMENT_SET_NO":999,"REV_AT_EPOCH":3081,"BSTAR":8.8109267e-5,"MEAN_MOTION_DOT":-8.3e-7,"MEAN_MOTION_DDOT":0},{"OBJECT_NAME":"HULIANWANG DIGUI-44","OBJECT_ID":"2025-162E","EPOCH":"2026-03-14T20:34:47.108352","MEAN_MOTION":13.29341404,"ECCENTRICITY":6.659e-5,"INCLINATION":50.0002,"RA_OF_ASC_NODE":244.0296,"ARG_OF_PERICENTER":23.8088,"MEAN_ANOMALY":336.2815,"EPHEMERIS_TYPE":0,"CLASSIFICATION_TYPE":"U","NORAD_CAT_ID":65047,"ELEMENT_SET_NO":999,"REV_AT_EPOCH":3082,"BSTAR":7.6638438e-5,"MEAN_MOTION_DOT":-8.8e-7,"MEAN_MOTION_DDOT":0},{"OBJECT_NAME":"HULIANWANG DIGUI-45","OBJECT_ID":"2025-162F","EPOCH":"2026-03-14T22:11:33.846720","MEAN_MOTION":13.29333743,"ECCENTRICITY":0.00010724,"INCLINATION":50.0032,"RA_OF_ASC_NODE":243.7743,"ARG_OF_PERICENTER":107.9019,"MEAN_ANOMALY":252.197,"EPHEMERIS_TYPE":0,"CLASSIFICATION_TYPE":"U","NORAD_CAT_ID":65048,"ELEMENT_SET_NO":999,"REV_AT_EPOCH":3082,"BSTAR":9.9560895e-5,"MEAN_MOTION_DOT":-7.8e-7,"MEAN_MOTION_DDOT":0},{"OBJECT_NAME":"HULIANWANG DIGUI-46","OBJECT_ID":"2025-162G","EPOCH":"2026-03-14T20:11:16.585152","MEAN_MOTION":13.29333688,"ECCENTRICITY":0.00010766,"INCLINATION":50.005,"RA_OF_ASC_NODE":244.0345,"ARG_OF_PERICENTER":110.1882,"MEAN_ANOMALY":249.9106,"EPHEMERIS_TYPE":0,"CLASSIFICATION_TYPE":"U","NORAD_CAT_ID":65049,"ELEMENT_SET_NO":999,"REV_AT_EPOCH":3081,"BSTAR":0.00010443893,"MEAN_MOTION_DOT":-7.6e-7,"MEAN_MOTION_DDOT":0},{"OBJECT_NAME":"HULIANWANG DIGUI-47","OBJECT_ID":"2025-162H","EPOCH":"2026-03-14T21:47:29.996448","MEAN_MOTION":13.29333603,"ECCENTRICITY":0.00010632,"INCLINATION":50.0015,"RA_OF_ASC_NODE":243.6567,"ARG_OF_PERICENTER":111.1635,"MEAN_ANOMALY":248.9351,"EPHEMERIS_TYPE":0,"CLASSIFICATION_TYPE":"U","NORAD_CAT_ID":65050,"ELEMENT_SET_NO":999,"REV_AT_EPOCH":3082,"BSTAR":0.00012382432,"MEAN_MOTION_DOT":-6.7e-7,"MEAN_MOTION_DDOT":0},{"OBJECT_NAME":"HULIANWANG DIGUI-48","OBJECT_ID":"2025-162J","EPOCH":"2026-03-14T21:35:30.496992","MEAN_MOTION":13.29333138,"ECCENTRICITY":0.00010425,"INCLINATION":50.0025,"RA_OF_ASC_NODE":243.6313,"ARG_OF_PERICENTER":110.0109,"MEAN_ANOMALY":250.0875,"EPHEMERIS_TYPE":0,"CLASSIFICATION_TYPE":"U","NORAD_CAT_ID":65051,"ELEMENT_SET_NO":999,"REV_AT_EPOCH":3082,"BSTAR":0.0001294916,"MEAN_MOTION_DOT":-6.4e-7,"MEAN_MOTION_DDOT":0}]
