HULIANWANG DIGUI-33     
1 64286U 25121D   26073.93659583  .00000068  00000+0  12397-3 0  9991
2 64286  86.4984  45.3885 0002010  73.0665 287.0689 13.24425995 37688
HULIANWANG DIGUI-34     
1 64287U 25121E   26073.92910020  .00000057  00000+0  99638-4 0  9999
2 64287  86.4962  45.3209 0002097  67.5489 292.5867 13.24424825 37682
HULIANWANG DIGUI-35     
1 64956U 25159A   26073.89561383  .00000046  00000+0  72236-4 0  9996
2 64956  86.4967 314.3084 0001238  82.7862 277.3413 13.24417924 30649
HULIANWANG DIGUI-36     
1 64957U 25159B   26073.96339532  .00000034  00000+0  44668-4 0  9999
2 64957  86.4987 314.3250 0001296  79.8408 280.2872 13.24420563 30650
HULIANWANG DIGUI-37     
1 64958U 25159C   26073.95585590  .00000034  00000+0  44810-4 0  9995
2 64958  86.4928 314.1841 0001328  75.5943 284.5338 13.24420155 30654
HULIANWANG DIGUI-38     
1 64959U 25159D   26073.94831996  .00000034  00000+0  44554-4 0  9994
2 64959  86.4987 314.3179 0001347  78.0105 282.1180 13.24420330 30659
HULIANWANG DIGUI-39     
1 64960U 25159E   26073.94075135  .00000049  00000+0  80680-4 0  9997
2 64960  86.4963 314.2579 0001370  79.1467 280.9821 13.24420524 30650
HULIANWANG DIGUI-40     
1 65043U 25162A   26073.89130130 -.00000078  00000+0  98197-4 0  9990
2 65043  49.9984 244.1689 0001041 109.4475 250.6509 13.29333129 30807
HULIANWANG DIGUI-41     
1 65044U 25162B   26073.88294653 -.00000077  00000+0  10071-3 0  9994
2 65044  49.9993 244.1435 0001083 108.3035 251.7955 13.29333542 30810
HULIANWANG DIGUI-42     
1 65045U 25162C   26073.87456790 -.00000075  00000+0  10582-3 0  9991
2 65045  49.9958 244.0357 0001020 110.1716 249.9266 13.29332930 30816
HULIANWANG DIGUI-43     
1 65046U 25162D   26073.86618696 -.00000083  00000+0  88109-4 0  9996
2 65046  49.9975 244.0252 0001013 109.0559 251.0423 13.29333938 30812
HULIANWANG DIGUI-44     
1 65047U 25162E   26073.85748968 -.00000088  00000+0  76638-4 0  9991
2 65047  50.0002 244.0296 0000665  23.8088 336.2815 13.29341404 30826
HULIANWANG DIGUI-45     
1 65048U 25162F   26073.92469730 -.00000078  00000+0  99561-4 0  9996
2 65048  50.0032 243.7743 0001072 107.9019 252.1970 13.29333743 30829
HULIANWANG DIGUI-46     
1 65049U 25162G   26073.84116418 -.00000076  00000+0  10444-3 0  9990
2 65049  50.0050 244.0345 0001076 110.1882 249.9106 13.29333688 30812
HULIANWANG DIGUI-47     
1 65050U 25162H   26073.90798607 -.00000067  00000+0  12382-3 0  9998
2 65050  50.0015 243.6567 0001063 111.1635 248.9351 13.29333603 30828
HULIANWANG DIGUI-48     
1 65051U 25162J   26073.89965853 -.00000064  00000+0  12949-3 0  9992
2 65051  50.0025 243.6313 0001042 110.0109 250.0875 13.29333138 30828
